{"fetched_at":"2026-07-24T07:06:09.639Z","source":"https://celestrak.org/NORAD/elements/gp.php?GROUP=planet&FORMAT=JSON","constellation":"superdove","records":[{"OBJECT_NAME":"FLOCK 4BE-17","OBJECT_ID":"2024-149AA","EPOCH":"2026-07-23T15:59:02.999616","CLASSIFICATION_TYPE":"U","MEAN_MOTION":15.4078091,"ECCENTRICITY":0.000473,"INCLINATION":97.3761,"RA_OF_ASC_NODE":288.3466,"ARG_OF_PERICENTER":125.5199,"MEAN_ANOMALY":234.6489,"EPHEMERIS_TYPE":0,"NORAD_CAT_ID":60492,"ELEMENT_SET_NO":999,"REV_AT_EPOCH":10787,"BSTAR":0.0004192,"MEAN_MOTION_DOT":0.00017098,"MEAN_MOTION_DDOT":0},{"OBJECT_NAME":"FLOCK 4BE-22","OBJECT_ID":"2024-149AC","EPOCH":"2026-07-23T11:37:30.198720","CLASSIFICATION_TYPE":"U","MEAN_MOTION":15.42293661,"ECCENTRICITY":0.0005013,"INCLINATION":97.3725,"RA_OF_ASC_NODE":288.4144,"ARG_OF_PERICENTER":133.7241,"MEAN_ANOMALY":226.4422,"EPHEMERIS_TYPE":0,"NORAD_CAT_ID":60494,"ELEMENT_SET_NO":999,"REV_AT_EPOCH":10789,"BSTAR":0.00040405,"MEAN_MOTION_DOT":0.00017329,"MEAN_MOTION_DDOT":0},{"OBJECT_NAME":"FLOCK 4BE-34","OBJECT_ID":"2024-149AD","EPOCH":"2026-07-23T12:03:26.878752","CLASSIFICATION_TYPE":"U","MEAN_MOTION":15.42148638,"ECCENTRICITY":0.0005386,"INCLINATION":97.3766,"RA_OF_ASC_NODE":289.2766,"ARG_OF_PERICENTER":138.8881,"MEAN_ANOMALY":221.2773,"EPHEMERIS_TYPE":0,"NORAD_CAT_ID":60495,"ELEMENT_SET_NO":999,"REV_AT_EPOCH":10792,"BSTAR":0.00039616,"MEAN_MOTION_DOT":0.00016907,"MEAN_MOTION_DDOT":0},{"OBJECT_NAME":"FLOCK 4BE-32","OBJECT_ID":"2024-149AF","EPOCH":"2026-07-23T16:54:53.708256","CLASSIFICATION_TYPE":"U","MEAN_MOTION":15.43320958,"ECCENTRICITY":0.0005349,"INCLINATION":97.3709,"RA_OF_ASC_NODE":289.055,"ARG_OF_PERICENTER":135.5347,"MEAN_ANOMALY":224.6331,"EPHEMERIS_TYPE":0,"NORAD_CAT_ID":60497,"ELEMENT_SET_NO":999,"REV_AT_EPOCH":10796,"BSTAR":0.00040994,"MEAN_MOTION_DOT":0.00018202,"MEAN_MOTION_DDOT":0},{"OBJECT_NAME":"FLOCK 4BE-11","OBJECT_ID":"2024-149AK","EPOCH":"2026-07-23T05:26:37.089024","CLASSIFICATION_TYPE":"U","MEAN_MOTION":15.44098653,"ECCENTRICITY":0.0005374,"INCLINATION":97.3687,"RA_OF_ASC_NODE":288.8351,"ARG_OF_PERICENTER":136.958,"MEAN_ANOMALY":223.209,"EPHEMERIS_TYPE":0,"NORAD_CAT_ID":60501,"ELEMENT_SET_NO":999,"REV_AT_EPOCH":10791,"BSTAR":0.0004316,"MEAN_MOTION_DOT":0.00019682,"MEAN_MOTION_DDOT":0},{"OBJECT_NAME":"FLOCK 4BE-24","OBJECT_ID":"2024-149AP","EPOCH":"2026-07-23T11:14:35.515968","CLASSIFICATION_TYPE":"U","MEAN_MOTION":15.44360001,"ECCENTRICITY":0.0005584,"INCLINATION":97.3698,"RA_OF_ASC_NODE":289.3533,"ARG_OF_PERICENTER":146.1141,"MEAN_ANOMALY":214.0465,"EPHEMERIS_TYPE":0,"NORAD_CAT_ID":60505,"ELEMENT_SET_NO":999,"REV_AT_EPOCH":10796,"BSTAR":0.00047285,"MEAN_MOTION_DOT":0.00021769,"MEAN_MOTION_DDOT":0},{"OBJECT_NAME":"FLOCK 4BE-29","OBJECT_ID":"2024-149AT","EPOCH":"2026-07-23T17:02:46.716288","CLASSIFICATION_TYPE":"U","MEAN_MOTION":15.46067747,"ECCENTRICITY":0.0004104,"INCLINATION":97.3796,"RA_OF_ASC_NODE":291.1722,"ARG_OF_PERICENTER":156.1376,"MEAN_ANOMALY":204.0064,"EPHEMERIS_TYPE":0,"NORAD_CAT_ID":60509,"ELEMENT_SET_NO":999,"REV_AT_EPOCH":10805,"BSTAR":0.0010313,"MEAN_MOTION_DOT":0.00050605,"MEAN_MOTION_DDOT":0},{"OBJECT_NAME":"FLOCK 4BE-2","OBJECT_ID":"2024-149AV","EPOCH":"2026-07-23T11:42:11.337408","CLASSIFICATION_TYPE":"U","MEAN_MOTION":15.56787431,"ECCENTRICITY":0.0005191,"INCLINATION":97.3821,"RA_OF_ASC_NODE":292.9273,"ARG_OF_PERICENTER":151.7186,"MEAN_ANOMALY":208.4352,"EPHEMERIS_TYPE":0,"NORAD_CAT_ID":60511,"ELEMENT_SET_NO":999,"REV_AT_EPOCH":10814,"BSTAR":0.0010389,"MEAN_MOTION_DOT":0.00074897,"MEAN_MOTION_DDOT":0},{"OBJECT_NAME":"FLOCK 4BE-13","OBJECT_ID":"2024-149AW","EPOCH":"2026-07-23T05:28:34.696704","CLASSIFICATION_TYPE":"U","MEAN_MOTION":15.42784687,"ECCENTRICITY":0.0005498,"INCLINATION":97.3709,"RA_OF_ASC_NODE":289.0355,"ARG_OF_PERICENTER":132.7555,"MEAN_ANOMALY":227.4156,"EPHEMERIS_TYPE":0,"NORAD_CAT_ID":60512,"ELEMENT_SET_NO":999,"REV_AT_EPOCH":10792,"BSTAR":0.00033975,"MEAN_MOTION_DOT":0.00014795,"MEAN_MOTION_DDOT":0},{"OBJECT_NAME":"FLOCK 4BE-27","OBJECT_ID":"2024-149AX","EPOCH":"2026-07-23T04:25:43.949280","CLASSIFICATION_TYPE":"U","MEAN_MOTION":15.35024754,"ECCENTRICITY":0.0004716,"INCLINATION":97.3815,"RA_OF_ASC_NODE":286.0653,"ARG_OF_PERICENTER":157.3005,"MEAN_ANOMALY":202.8447,"EPHEMERIS_TYPE":0,"NORAD_CAT_ID":60513,"ELEMENT_SET_NO":999,"REV_AT_EPOCH":10766,"BSTAR":0.00029375,"MEAN_MOTION_DOT":0.00009907,"MEAN_MOTION_DDOT":0},{"OBJECT_NAME":"FLOCK 4BE-9","OBJECT_ID":"2024-149AY","EPOCH":"2026-07-23T16:56:25.545408","CLASSIFICATION_TYPE":"U","MEAN_MOTION":15.41836451,"ECCENTRICITY":0.0004245,"INCLINATION":97.3781,"RA_OF_ASC_NODE":289.3561,"ARG_OF_PERICENTER":148.9419,"MEAN_ANOMALY":211.208,"EPHEMERIS_TYPE":0,"NORAD_CAT_ID":60514,"ELEMENT_SET_NO":999,"REV_AT_EPOCH":10794,"BSTAR":0.00039839,"MEAN_MOTION_DOT":0.00016823,"MEAN_MOTION_DDOT":0},{"OBJECT_NAME":"FLOCK 4BE-6","OBJECT_ID":"2024-149BA","EPOCH":"2026-07-23T16:47:27.466080","CLASSIFICATION_TYPE":"U","MEAN_MOTION":15.40506954,"ECCENTRICITY":0.0004863,"INCLINATION":97.3776,"RA_OF_ASC_NODE":288.6374,"ARG_OF_PERICENTER":148.8038,"MEAN_ANOMALY":211.3497,"EPHEMERIS_TYPE":0,"NORAD_CAT_ID":60516,"ELEMENT_SET_NO":999,"REV_AT_EPOCH":10789,"BSTAR":0.00037287,"MEAN_MOTION_DOT":0.00015058,"MEAN_MOTION_DDOT":0},{"OBJECT_NAME":"FLOCK 4BE-14","OBJECT_ID":"2024-149BB","EPOCH":"2026-07-23T04:39:01.677024","CLASSIFICATION_TYPE":"U","MEAN_MOTION":15.42062963,"ECCENTRICITY":0.0005896,"INCLINATION":97.3682,"RA_OF_ASC_NODE":288.2986,"ARG_OF_PERICENTER":152.5483,"MEAN_ANOMALY":207.6076,"EPHEMERIS_TYPE":0,"NORAD_CAT_ID":60517,"ELEMENT_SET_NO":999,"REV_AT_EPOCH":10787,"BSTAR":0.00045531,"MEAN_MOTION_DOT":0.00019396,"MEAN_MOTION_DDOT":0},{"OBJECT_NAME":"FLOCK 4BE-1","OBJECT_ID":"2024-149BC","EPOCH":"2026-07-23T04:07:00.486624","CLASSIFICATION_TYPE":"U","MEAN_MOTION":15.43728639,"ECCENTRICITY":0.0005569,"INCLINATION":97.3765,"RA_OF_ASC_NODE":289.6846,"ARG_OF_PERICENTER":152.3818,"MEAN_ANOMALY":207.7726,"EPHEMERIS_TYPE":0,"NORAD_CAT_ID":60518,"ELEMENT_SET_NO":999,"REV_AT_EPOCH":10792,"BSTAR":0.00045281,"MEAN_MOTION_DOT":0.00020399,"MEAN_MOTION_DDOT":0},{"OBJECT_NAME":"FLOCK 4BE-28","OBJECT_ID":"2024-149BD","EPOCH":"2026-07-23T17:01:06.988224","CLASSIFICATION_TYPE":"U","MEAN_MOTION":15.46882231,"ECCENTRICITY":0.0005566,"INCLINATION":97.3736,"RA_OF_ASC_NODE":291.0795,"ARG_OF_PERICENTER":151.2578,"MEAN_ANOMALY":208.898,"EPHEMERIS_TYPE":0,"NORAD_CAT_ID":60519,"ELEMENT_SET_NO":999,"REV_AT_EPOCH":10808,"BSTAR":0.00098784,"MEAN_MOTION_DOT":0.00049849,"MEAN_MOTION_DDOT":0},{"OBJECT_NAME":"FLOCK 4BE-5","OBJECT_ID":"2024-149CV","EPOCH":"2026-07-23T04:50:02.408064","CLASSIFICATION_TYPE":"U","MEAN_MOTION":15.41228821,"ECCENTRICITY":0.00046007,"INCLINATION":97.3834,"RA_OF_ASC_NODE":288.5706,"ARG_OF_PERICENTER":149.4959,"MEAN_ANOMALY":210.6556,"EPHEMERIS_TYPE":0,"NORAD_CAT_ID":60559,"ELEMENT_SET_NO":999,"REV_AT_EPOCH":10782,"BSTAR":0.00040664392,"MEAN_MOTION_DOT":0.0001683,"MEAN_MOTION_DDOT":0}]}
